{
  "norad_id": 65638,
  "name": "STARLINK-35213",
  "history": [
    {
      "epoch": "2026-03-28T18:32:48.024384",
      "apogee_km": 475.99115803895074,
      "perigee_km": 474.44462997357004,
      "latitude_deg": -8.605465682024532,
      "longitude_deg": 97.98669376014732,
      "semi_major_axis_km": 6853.35489400626,
      "eccentricity": 0.00011283,
      "inclination_deg": 53.1584,
      "raan_deg": 218.3791,
      "arg_perigee_deg": 65.5639,
      "mean_anomaly_deg": 294.548,
      "mean_motion_rev_day": 15.30199054
    }
  ]
}